start=new Date('2023-01-20T00:00:00.000Z').valueOf();
sats=[{"EPHEMERIS_TYPE":"0","RCS_SIZE":"LARGE","BSTAR":"0.00033057000000","MEAN_MOTION_DDOT":"0.0000000000000","OBJECT_NAME":"STARLINK-4305","CLASSIFICATION_TYPE":"U","COUNTRY_CODE":"US","MEAN_ANOMALY":"260.3570","EPOCH":"2023-01-19T19:11:13.380288","DECAY_DATE":null,"RA_OF_ASC_NODE":"202.9891","ELEMENT_SET_NO":"999","SEMIMAJOR_AXIS":"6941.094","OBJECT_ID":"2022-077T","MEAN_ELEMENT_THEORY":"SGP4","FILE":"3755050","TLE_LINE2":"2 53060  97.6561 202.9891 0001149  99.7784 260.3570 15.01277044 29724","CENTER_NAME":"EARTH","SITE":"AFWTR","PERIAPSIS":"562.162","LAUNCH_DATE":"2022-07-11","REV_AT_EPOCH":"2972","APOAPSIS":"563.757","MEAN_MOTION_DOT":"0.00004191","ARG_OF_PERICENTER":"99.7784","TIME_SYSTEM":"UTC","NORAD_CAT_ID":"53060","TLE_LINE1":"1 53060U 22077T   23019.79946042  .00004191  00000-0  33057-3 0  9994","GP_ID":"223502141","OBJECT_TYPE":"PAYLOAD","PERIOD":"95.918","ECCENTRICITY":"0.00011490","INCLINATION":"97.6561","REF_FRAME":"TEME","MEAN_MOTION":"15.01277044"},{"TLE_LINE1":"1 53061U 22077U   23019.45879494  .00004871  00000-0  38347-3 0  9996","NORAD_CAT_ID":"53061","GP_ID":"223500940","OBJECT_TYPE":"PAYLOAD","PERIOD":"95.919","INCLINATION":"97.6573","ECCENTRICITY":"0.00010960","REF_FRAME":"TEME","MEAN_MOTION":"15.01272833","APOAPSIS":"563.733","REV_AT_EPOCH":"2909","MEAN_MOTION_DOT":"0.00004871","ARG_OF_PERICENTER":"72.1841","TIME_SYSTEM":"UTC","TLE_LINE2":"2 53061  97.6573 202.6562 0001096  72.1841 287.9502 15.01272833 29091","FILE":"3754973","OBJECT_ID":"2022-077U","MEAN_ELEMENT_THEORY":"SGP4","CENTER_NAME":"EARTH","SITE":"AFWTR","LAUNCH_DATE":"2022-07-11","PERIAPSIS":"562.212","RCS_SIZE":"LARGE","EPHEMERIS_TYPE":"0","OBJECT_NAME":"STARLINK-4308","MEAN_MOTION_DDOT":"0.0000000000000","BSTAR":"0.00038347000000","CLASSIFICATION_TYPE":"U","COUNTRY_CODE":"US","EPOCH":"2023-01-19T11:00:39.882816","MEAN_ANOMALY":"287.9502","RA_OF_ASC_NODE":"202.6562","DECAY_DATE":null,"ELEMENT_SET_NO":"999","SEMIMAJOR_AXIS":"6941.107"},{"NORAD_CAT_ID":"53062","TLE_LINE1":"1 53062U 22077V   23019.46249570 -.00001005  00000-0 -73584-4 0  9995","GP_ID":"223500693","OBJECT_TYPE":"PAYLOAD","PERIOD":"95.918","ECCENTRICITY":"0.00011250","INCLINATION":"97.6567","REF_FRAME":"TEME","MEAN_MOTION":"15.01284924","REV_AT_EPOCH":"2909","APOAPSIS":"563.716","MEAN_MOTION_DOT":"-0.00001005","ARG_OF_PERICENTER":"60.6561","TIME_SYSTEM":"UTC","OBJECT_ID":"2022-077V","MEAN_ELEMENT_THEORY":"SGP4","FILE":"3754973","TLE_LINE2":"2 53062  97.6567 202.6619 0001125  60.6561 299.4775 15.01284924 29096","CENTER_NAME":"EARTH","SITE":"AFWTR","PERIAPSIS":"562.154","LAUNCH_DATE":"2022-07-11","EPHEMERIS_TYPE":"0","RCS_SIZE":"LARGE","BSTAR":"-0.00007358400000","MEAN_MOTION_DDOT":"0.0000000000000","OBJECT_NAME":"STARLINK-4311","CLASSIFICATION_TYPE":"U","COUNTRY_CODE":"US","MEAN_ANOMALY":"299.4775","EPOCH":"2023-01-19T11:05:59.628480","RA_OF_ASC_NODE":"202.6619","DECAY_DATE":null,"SEMIMAJOR_AXIS":"6941.070","ELEMENT_SET_NO":"999"},{"MEAN_ELEMENT_THEORY":"SGP4","OBJECT_ID":"2022-077W","TLE_LINE2":"2 53063  97.6545 202.6910 0001505  91.6528 268.4868 15.01273780 29105","FILE":"3754973","CENTER_NAME":"EARTH","SITE":"AFWTR","PERIAPSIS":"561.925","LAUNCH_DATE":"2022-07-11","EPHEMERIS_TYPE":"0","RCS_SIZE":"LARGE","BSTAR":"0.00021440000000","MEAN_MOTION_DDOT":"0.0000000000000","OBJECT_NAME":"STARLINK-4307","CLASSIFICATION_TYPE":"U","COUNTRY_CODE":"US","EPOCH":"2023-01-19T11:43:40.592928","MEAN_ANOMALY":"268.4868","RA_OF_ASC_NODE":"202.6910","DECAY_DATE":null,"SEMIMAJOR_AXIS":"6941.104","ELEMENT_SET_NO":"999","NORAD_CAT_ID":"53063","TLE_LINE1":"1 53063U 22077W   23019.48866427  .00002697  00000-0  21440-3 0  9993","GP_ID":"223499954","OBJECT_TYPE":"PAYLOAD","PERIOD":"95.919","ECCENTRICITY":"0.00015050","INCLINATION":"97.6545","REF_FRAME":"TEME","MEAN_MOTION":"15.01273780","APOAPSIS":"564.014","REV_AT_EPOCH":"2910","MEAN_MOTION_DOT":"0.00002697","ARG_OF_PERICENTER":"91.6528","TIME_SYSTEM":"UTC"},{"MEAN_MOTION_DDOT":"0.0000000000000","BSTAR":"-0.00004278300000","OBJECT_NAME":"STARLINK-4313","EPHEMERIS_TYPE":"0","RCS_SIZE":"LARGE","COUNTRY_CODE":"US","CLASSIFICATION_TYPE":"U","EPOCH":"2023-01-19T11:03:20.922048","MEAN_ANOMALY":"306.5537","SEMIMAJOR_AXIS":"6941.185","ELEMENT_SET_NO":"999","RA_OF_ASC_NODE":"202.6543","DECAY_DATE":null,"CENTER_NAME":"EARTH","MEAN_ELEMENT_THEORY":"SGP4","OBJECT_ID":"2022-077X","FILE":"3754973","TLE_LINE2":"2 53064  97.6570 202.6543 0000893  53.5769 306.5537 15.01247784 29099","PERIAPSIS":"562.430","LAUNCH_DATE":"2022-07-11","SITE":"AFWTR","MEAN_MOTION_DOT":"-0.00000608","APOAPSIS":"563.669","REV_AT_EPOCH":"2909","TIME_SYSTEM":"UTC","ARG_OF_PERICENTER":"53.5769","GP_ID":"223500201","NORAD_CAT_ID":"53064","TLE_LINE1":"1 53064U 22077X   23019.46065882 -.00000608  00000-0 -42783-4 0  9994","PERIOD":"95.920","OBJECT_TYPE":"PAYLOAD","REF_FRAME":"TEME","ECCENTRICITY":"0.00008930","INCLINATION":"97.6570","MEAN_MOTION":"15.01247784"},{"OBJECT_ID":"2022-077Y","MEAN_ELEMENT_THEORY":"SGP4","TLE_LINE2":"2 53065  97.6563 202.9918 0001710  15.1564 344.9711 15.01286720 29720","FILE":"3755046","CENTER_NAME":"EARTH","SITE":"AFWTR","PERIAPSIS":"561.743","LAUNCH_DATE":"2022-07-11","CLASSIFICATION_TYPE":"U","COUNTRY_CODE":"US","EPHEMERIS_TYPE":"0","RCS_SIZE":"LARGE","MEAN_MOTION_DDOT":"0.0000000000000","BSTAR":"0.00112320000000","OBJECT_NAME":"STARLINK-4312","RA_OF_ASC_NODE":"202.9918","DECAY_DATE":null,"SEMIMAJOR_AXIS":"6941.064","ELEMENT_SET_NO":"999","EPOCH":"2023-01-19T18:55:13.356192","MEAN_ANOMALY":"344.9711","OBJECT_TYPE":"PAYLOAD","PERIOD":"95.918","NORAD_CAT_ID":"53065","TLE_LINE1":"1 53065U 22077Y   23019.78834903  .00014407  00000-0  11232-2 0  9991","GP_ID":"223502166","MEAN_MOTION":"15.01286720","ECCENTRICITY":"0.00017100","INCLINATION":"97.6563","REF_FRAME":"TEME","ARG_OF_PERICENTER":"15.1564","TIME_SYSTEM":"UTC","REV_AT_EPOCH":"2972","APOAPSIS":"564.116","MEAN_MOTION_DOT":"0.00014407"},{"COUNTRY_CODE":"US","CLASSIFICATION_TYPE":"U","MEAN_MOTION_DDOT":"0.0000000000000","BSTAR":"0.00046298000000","OBJECT_NAME":"STARLINK-4309","EPHEMERIS_TYPE":"0","RCS_SIZE":"LARGE","ELEMENT_SET_NO":"999","SEMIMAJOR_AXIS":"6941.104","DECAY_DATE":null,"RA_OF_ASC_NODE":"202.6589","MEAN_ANOMALY":"349.7881","EPOCH":"2023-01-19T10:57:59.879520","CENTER_NAME":"EARTH","OBJECT_ID":"2022-077Z","MEAN_ELEMENT_THEORY":"SGP4","TLE_LINE2":"2 53066  97.6582 202.6589 0001418  10.3372 349.7881 15.01273908 29097","FILE":"3754973","PERIAPSIS":"561.985","LAUNCH_DATE":"2022-07-11","SITE":"AFWTR","TIME_SYSTEM":"UTC","ARG_OF_PERICENTER":"10.3372","MEAN_MOTION_DOT":"0.00005895","REV_AT_EPOCH":"2909","APOAPSIS":"563.953","PERIOD":"95.919","OBJECT_TYPE":"PAYLOAD","GP_ID":"223501184","NORAD_CAT_ID":"53066","TLE_LINE1":"1 53066U 22077Z   23019.45694305  .00005895  00000-0  46298-3 0  9998","MEAN_MOTION":"15.01273908","REF_FRAME":"TEME","ECCENTRICITY":"0.00014180","INCLINATION":"97.6582"},{"TLE_LINE2":"2 53067  97.6555 202.9923 0001821  16.0450 344.0832 15.01272473 29721","FILE":"3755061","OBJECT_ID":"2022-077AA","MEAN_ELEMENT_THEORY":"SGP4","CENTER_NAME":"EARTH","SITE":"AFWTR","LAUNCH_DATE":"2022-07-11","PERIAPSIS":"561.709","RCS_SIZE":"LARGE","EPHEMERIS_TYPE":"0","OBJECT_NAME":"STARLINK-4306","MEAN_MOTION_DDOT":"0.0000000000000","BSTAR":"0.00065230000000","CLASSIFICATION_TYPE":"U","COUNTRY_CODE":"US","EPOCH":"2023-01-19T18:49:53.467104","MEAN_ANOMALY":"344.0832","DECAY_DATE":null,"RA_OF_ASC_NODE":"202.9923","SEMIMAJOR_AXIS":"6941.108","ELEMENT_SET_NO":"999","TLE_LINE1":"1 53067U 22077AA  23019.78464661  .00008332  00000-0  65230-3 0  9991","NORAD_CAT_ID":"53067","GP_ID":"223502684","OBJECT_TYPE":"PAYLOAD","PERIOD":"95.919","INCLINATION":"97.6555","ECCENTRICITY":"0.00018210","REF_FRAME":"TEME","MEAN_MOTION":"15.01272473","REV_AT_EPOCH":"2972","APOAPSIS":"564.237","MEAN_MOTION_DOT":"0.00008332","ARG_OF_PERICENTER":"16.0450","TIME_SYSTEM":"UTC"},{"OBJECT_NAME":"STARLINK-4325","BSTAR":"0.00049525000000","MEAN_MOTION_DDOT":"0.0000000000000","RCS_SIZE":"LARGE","EPHEMERIS_TYPE":"0","COUNTRY_CODE":"US","CLASSIFICATION_TYPE":"U","MEAN_ANOMALY":"352.5006","EPOCH":"2023-01-19T10:53:00.953664","ELEMENT_SET_NO":"999","SEMIMAJOR_AXIS":"6941.098","RA_OF_ASC_NODE":"202.6636","DECAY_DATE":null,"CENTER_NAME":"EARTH","FILE":"3754973","TLE_LINE2":"2 53068  97.6560 202.6636 0001682   7.6243 352.5006 15.01275717 29098","MEAN_ELEMENT_THEORY":"SGP4","OBJECT_ID":"2022-077AB","LAUNCH_DATE":"2022-07-11","PERIAPSIS":"561.796","SITE":"AFWTR","MEAN_MOTION_DOT":"0.00006310","REV_AT_EPOCH":"2909","APOAPSIS":"564.131","TIME_SYSTEM":"UTC","ARG_OF_PERICENTER":"7.6243","GP_ID":"223499705","TLE_LINE1":"1 53068U 22077AB  23019.45348326  .00006310  00000-0  49525-3 0  9998","NORAD_CAT_ID":"53068","PERIOD":"95.918","OBJECT_TYPE":"PAYLOAD","REF_FRAME":"TEME","INCLINATION":"97.6560","ECCENTRICITY":"0.00016820","MEAN_MOTION":"15.01275717"},{"CENTER_NAME":"EARTH","FILE":"3754973","TLE_LINE2":"2 53069  97.6536 202.6663 0001747   9.5152 350.6105 15.01278167 29095","MEAN_ELEMENT_THEORY":"SGP4","OBJECT_ID":"2022-077AC","LAUNCH_DATE":"2022-07-11","PERIAPSIS":"561.743","SITE":"AFWTR","COUNTRY_CODE":"US","CLASSIFICATION_TYPE":"U","OBJECT_NAME":"STARLINK-4323","MEAN_MOTION_DDOT":"0.0000000000000","BSTAR":"0.00044979000000","RCS_SIZE":"LARGE","EPHEMERIS_TYPE":"0","SEMIMAJOR_AXIS":"6941.091","ELEMENT_SET_NO":"999","DECAY_DATE":null,"RA_OF_ASC_NODE":"202.6663","EPOCH":"2023-01-19T10:44:39.891552","MEAN_ANOMALY":"350.6105","PERIOD":"95.918","OBJECT_TYPE":"PAYLOAD","GP_ID":"223500941","TLE_LINE1":"1 53069U 22077AC  23019.44768393  .00005726  00000-0  44979-3 0  9996","NORAD_CAT_ID":"53069","MEAN_MOTION":"15.01278167","REF_FRAME":"TEME","INCLINATION":"97.6536","ECCENTRICITY":"0.00017470","TIME_SYSTEM":"UTC","ARG_OF_PERICENTER":"9.5152","MEAN_MOTION_DOT":"0.00005726","REV_AT_EPOCH":"2909","APOAPSIS":"564.168"}];
